P/2019 A2 (ATLAS),e,14.8618,139.4393,323.8538,5.713485,0.0721693,0.38229263,118.7334,05/24.0/2023,2000,g 10.5,4.0
# From MPEC 2022-M21
P/2019 A3 (PANSTARRS),e,15.3751,31.2937,325.6772,3.144006,0.1767987,0.26607864,309.8658,05/24.0/2023,2000,g 16.0,4.0
# From MPEC 2022-L66
P/2019 A4 (PANSTARRS),e,13.3061,119.2431,343.0432,2.613545,0.2332702,0.08713110,19.0341,05/24.0/2023,2000,g 15.0,4.0
# From MPEC 2021-P47
C/2019 A5 (PANSTARRS),e,67.5512,146.6002,355.7961,21.48525,0.0098968,0.70612597,14.3248,05/24.0/2023,2000,g  9.5,4.0
# From MPC114605
P/2019 A6 (Lemmon-PANSTARRS),e,33.2717,280.1900,156.1974,5.357600,0.0794783,0.63998064,137.3107,05/24.0/2023,2000,g 16.0,4.0
# From MPC115884
P/2019 A8 (PANSTARRS),e,2.1830,113.9306,65.8571,4.301879,0.1104630,0.23489140,197.9051,05/24.0/2023,2000,g 16.0,4.0
# From MPC118842
C/2019 A9 (PANSTARRS),e,84.2690,278.4140,237.9179,39.14048,0.0040250,0.96344882,5.6270,05/24.0/2023,2000,g 15.0,4.0
# From MPEC 2022-L66
C/2019 B1 (Africano),e,123.4183,290.3607,174.7691,137.6077,0.0006106,0.98838520,0.0000,03/18.5609/2019,2000,g 16.0,4.0
# From MPC115885
P/2019 B2 (Groeller),e,17.0047,175.7467,0.9811,3.915809,0.1271955,0.35992770,185.3959,05/24.0/2023,2000,g 14.5,4.0
# From MPEC 2023-HD1
C/2019 B3 (PANSTARRS),e,66.5395,358.4324,263.9681,37650,0.0000001,0.99981871,0.0000,01/20.3337/2021,2000,g  9.4,4.0
# From MPEC 2021-P47
C/2019 C1 (ATLAS),e,36.0510,212.3919,319.0699,646.0226,0.0000600,0.98982132,0.0000,05/04.2690/2020,2000,g 10.0,4.0
# From MPEC 2022-O08
C/2019 D1 (Flewelling),e,34.0074,231.6594,70.6897,142.1377,0.0005816,0.98883956,0.0000,05/11.0793/2019,2000,g 13.0,4.0
# From MPEC 2023-K53
C/2019 E3 (ATLAS),e,84.2973,347.2438,280.6870,23062,0.0000003,0.99955281,0.0000,11/14.9897/2023,2000,g  2.5,4.0
# From MPEC 2023-CD7
C/2019 F1 (ATLAS-Africano),h,06/22.9544/2021,54.2302,38.6661,251.3050,1.002909,3.602593,2000,5.5,4.0
# From MPEC 2021-P47
C/2019 F2 (ATLAS),e,19.2764,175.4462,11.6321,16.62164,0.0145443,0.86486096,19.6955,05/24.0/2023,2000,g 12.0,4.0
# From MPEC 2021-P47
A/2019 G2,e,159.2142,208.1607,82.6062,435.4724,0.0001085,0.99473205,0.0000,12/08.4687/2019,2000,g 16.5,2.0
# From MPEC 2022-VC5
A/2019 G3,e,156.8066,49.8973,161.9074,17.20247,0.0138139,0.83447748,22.5377,05/24.0/2023,2000,g 17.1,2.0
# From MPEC 2022-P82
C/2019 G4 (PANSTARRS),h,09/15.6764/2018,138.3496,130.4500,287.7574,1.001623,5.848073,2000,9.5,4.0
# From MPC114607
P/2019 GG21 (PANSTARRS),e,6.0864,340.5559,208.5991,7.468976,0.0482850,0.47185407,71.2181,05/24.0/2023,2000,g 12.0,4.0
# From MPEC 2022-M21
C/2019 H1 (NEOWISE),e,104.4505,269.2724,19.3354,246.5198,0.0002546,0.99251695,0.0000,04/27.9555/2019,2000,g 15.5,4.0
# From MPEC 2023-A50
C/2019 J1 (Lemmon),e,24.5397,98.1625,167.7369,68.32427,0.0017452,0.96362865,2.6305,05/24.0/2023,2000,g 12.0,4.0
# From MPEC 2021-R75
C/2019 J2 (Palomar),e,105.2337,25.5612,98.6863,161.9811,0.0004781,0.98937305,0.0000,07/20.4150/2019,2000,g 13.0,4.0
# From MPC117071
C/2019 J3 (ATLAS),h,08/02.4262/2019,131.3499,270.6066,16.6058,1.000621,2.370706,2000,13.5,4.0
# From MPEC 2022-M21
C/2019 JU6 (ATLAS),h,06/01.9388/2019,148.3314,21.7658,94.9923,1.000054,2.043940,2000,14.5,4.0
# From MPEC 2022-O08
C/2019 K1 (ATLAS),e,87.0525,73.3369,265.7251,10585,0.0000009,0.99980974,0.0000,02/12.6689/2020,2000,g 10.0,4.0
# From MPC119997
C/2019 K4 (Ye),e,105.2970,180.1524,139.8861,1385,0.0000191,0.99836207,0.0000,06/15.5915/2019,2000,g 12.5,4.0
# From MPEC 2021-P47
C/2019 K5 (Young),e,15.3178,177.1345,175.1431,168.3179,0.0004513,0.98786404,0.0000,06/22.9665/2019,2000,g 13.0,4.0
# From MPEC 2021-P47
C/2019 K6 (PANSTARRS),e,132.3812,42.9958,187.5830,1523,0.0000166,0.99742276,0.0000,05/19.9711/2020,2000,g 11.5,4.0
# From MPEC 2023-J29
C/2019 K7 (Smith),h,06/17.6132/2020,103.5306,307.9675,27.4036,1.000929,4.478318,2000,6.0,4.0
# From MPEC 2021-R75
C/2019 K8 (ATLAS),e,93.1377,291.0277,85.3795,2616,0.0000074,0.99877954,0.0000,07/21.7370/2019,2000,g 11.5,4.0
# From MPEC 2023-A50
C/2019 L1 (PANSTARRS),e,9.9795,254.4301,50.0527,9.840062,0.0319306,0.70532856,44.1423,05/24.0/2023,2000,g 13.5,4.0
# From MPC115886
C/2019 L2 (NEOWISE),e,152.2100,12.5488,18.8439,25.03623,0.0078678,0.93505155,11.9040,05/24.0/2023,2000,g 16.0,4.0
# From MPEC 2023-HD1
P/2019 LD2 (ATLAS),e,11.6193,179.5797,119.8591,5.218306,0.0826818,0.12659259,97.1673,05/24.0/2023,2000,g 12.0,4.0
# From MPEC 2023-K53
C/2019 L3 (ATLAS),h,01/09.6769/2022,48.3490,290.7751,171.6241,1.002141,3.554498,2000,4.5,4.0
# From MPC118095
C/2019 LB7 (Kleyna),e,164.2914,3.8900,336.5791,34.69130,0.0048236,0.92817628,7.3305,05/24.0/2023,2000,g 17.0,4.0
# From MPEC 2022-O08
P/2019 M2 (ATLAS),e,12.2704,307.6161,332.5492,3.028915,0.1869707,0.64740086,267.7964,05/24.0/2023,2000,g 21.2,4.0
# From MPC118095
C/2019 M3 (ATLAS),e,99.5183,154.9333,87.8958,6628,0.0000018,0.99963457,0.0000,12/31.9040/2018,2000,g 12.2,4.0
# From MPEC 2023-JA2
C/2019 M4 (TESS),h,09/12.4149/2019,65.6835,52.6446,260.3724,1.003856,9.187850,2000,5.0,4.0
# From MPEC 2023-C45
C/2019 N1 (ATLAS),e,82.4322,13.5715,193.4158,1609,0.0000153,0.99894009,0.0000,12/01.2881/2020,2000,g  7.5,4.0
# From MPEC 2023-CD8
A/2019 N2,e,89.3846,276.1259,347.1930,1624,0.0000151,0.99880043,0.0000,08/22.7520/2019,2000,g 12.5,2.0
# From MPEC 2022-A21
C/2019 NJ3 (Lemmon),h,10/22.9406/2020,99.4164,142.4709,246.9115,1.002494,4.362784,2000,9.0,4.0
# From MPEC 2023-J95
A/2019 O2,e,93.3082,48.2619,129.6363,57.94170,0.0022347,0.83288740,0.1047,05/24.0/2023,2000,g  9.5,2.0
# From MPEC 2023-K53
C/2019 O3 (Palomar),h,03/09.5906/2021,89.8184,300.4224,60.1291,1.004370,8.821037,2000,3.5,4.0
# From MPEC 2021-P47
A/2019 O4,e,115.0878,354.9099,61.9041,33.29528,0.0051302,0.89049337,6.1465,05/24.0/2023,2000,g 15.5,2.0
# From MPEC 2023-A50
C/2019 Q1 (Lemmon),h,07/20.7629/2020,155.7296,42.4598,56.1980,1.000817,5.003055,2000,8.5,4.0
# From MPC117072
A/2019 Q2,e,159.0285,188.0124,176.3967,57.91020,0.0022365,0.97819155,0.0000,07/22.1304/2019,2000,g 18.0,2.0
# From MPC117072
C/2019 Q3 (PANSTARRS),h,08/21.3202/2018,65.5404,151.3420,152.7960,1.002506,7.266600,2000,8.5,4.0
# From MPC117072
P/2019 S2 (PANSTARRS),e,10.4656,93.1387,217.1571,4.742962,0.0954179,0.20565136,148.1111,05/24.0/2023,2000,g 13.5,4.0
# From MPEC 2022-CN4
P/2019 S3 (PANSTARRS),e,8.6927,150.1500,213.0590,3.415396,0.1561502,0.47116946,213.2646,05/24.0/2023,2000,g 18.3,4.0
# From MPEC 2021-S45
C/2019 S4 (Lemmon),e,92.0831,63.1486,71.3775,234.8377,0.0002739,0.98534134,0.0000,04/08.0900/2020,2000,g 11.0,4.0
# From MPEC 2023-G31
A/2019 T1,e,120.8750,6.9449,91.0712,38.75893,0.0040846,0.88953835,3.5093,05/24.0/2023,2000,g 13.0,2.0
# From MPEC 2023-J29
C/2019 T2 (Lemmon),e,111.4719,155.6505,239.4310,4169,0.0000037,0.99936524,0.0000,04/22.5395/2021,2000,g  9.0,4.0
# From MPEC 2022-WQ9
C/2019 T3 (ATLAS),e,121.8434,139.5321,112.4522,3509,0.0000047,0.99830370,0.0000,03/04.2977/2021,2000,g  6.8,4.0
# From MPEC 2023-K53
C/2019 T4 (ATLAS),e,53.6318,199.9390,351.1685,953.5910,0.0000335,0.99555166,0.0000,06/08.9352/2022,2000,g  5.0,4.0
# From MPEC 2021-P47
P/2019 T5 (ATLAS),e,33.4908,247.6239,189.5678,7.997673,0.0435771,0.80955356,60.6213,05/24.0/2023,2000,g 15.0,4.0
# From MPEC 2021-P47
P/2019 T6 (PANSTARRS),e,18.7025,71.2202,329.0037,5.437966,0.0777230,0.62305959,100.4491,05/24.0/2023,2000,g 15.5,4.0
# From MPC118096
P/2019 U4 (PANSTARRS),e,11.7006,200.0007,181.0317,3.520184,0.1492299,0.47600965,200.3260,05/24.0/2023,2000,g 19.0,4.0
# From MPEC 2023-K53
C/2019 U5 (PANSTARRS),h,03/29.8295/2023,113.5194,2.6373,181.4927,1.001426,3.624193,2000,4.5,4.0
# From MPEC 2022-H04
C/2019 U6 (Lemmon),e,60.9772,235.7632,329.5693,338.2731,0.0001584,0.99730035,0.0000,06/18.4148/2020,2000,g 10.0,4.0
# From MPEC 2022-N37
C/2019 V1 (Borisov),e,61.9088,83.1667,51.1625,1535,0.0000164,0.99798328,0.0000,07/16.4418/2020,2000,g 11.0,4.0
# From MPEC 2022-L66
P/2019 V2 (Groeller),e,11.8082,189.1845,335.7498,7.499479,0.0479907,0.33113323,45.5246,05/24.0/2023,2000,g 10.0,4.0
# From MPEC 2023-A50
P/2019 W1 (PANSTARRS),e,23.4751,35.3767,18.7298,4.549184,0.1015790,0.26711038,149.9141,05/24.0/2023,2000,g 12.9,4.0
# From MPEC 2021-P47
P/2019 X1 (Pruyne),e,10.2502,43.6645,36.8098,6.174315,0.0642423,0.30366779,90.0589,05/24.0/2023,2000,g 10.4,4.0
# From MPC119999
C/2019 Y1 (ATLAS),e,73.3571,31.5562,57.9121,86.55379,0.0012240,0.99042284,0.0000,03/16.0493/2020,2000,g 13.7,4.0
# From MPEC 2022-YN2
C/2019 Y4 (ATLAS),e,45.2200,120.6591,177.4527,353.7999,0.0001481,0.99927883,0.0000,05/30.8696/2020,2000,g 11.8,6.0
# From MPEC 2020-L06
C/2019 Y4-A (ATLAS),h,05/30.8971/2020,45.6627,121.0205,177.2865,1.001419,0.253303,2000,11.6,6.0
# From MPEC 2023-J29
C/2019 Y4-B (ATLAS),h,05/30.8749/2020,45.3508,120.7651,177.3968,1.000021,0.254617,2000,12.1,6.0
# From MPEC 2020-L06
C/2019 Y4-C (ATLAS),h,05/30.8515/2020,45.4451,120.7470,177.3198,1.002143,0.254371,2000,12.7,6.0
# From MPEC 2020-L06
C/2019 Y4-D (ATLAS),e,45.4898,121.1214,177.4578,68.42584,0.0017413,0.99629227,0.0000,05/30.9755/2020,2000,g 12.5,6.0
# From MPEC 2023-A50
C/2019 Y5 (PANSTARRS),e,82.7689,51.7570,303.5622,754.1857,0.0000476,0.99347631,0.0000,08/17.9279/2019,2000,g 11.0,4.0
# From MPEC 2023-A50
A/2020 A1,e,149.0373,119.2035,302.5110,25.65354,0.0075855,0.93503200,9.6238,05/24.0/2023,2000,g 18.0,2.0
# From MPEC 2022-YN2
C/2020 A2 (NEOWISE),e,120.6322,286.3011,68.0932,1414,0.0000185,0.99931106,0.0000,01/08.5138/2020,2000,g 13.5,4.0
# From MPEC 2023-A50
C/2020 A3 (ATLAS),h,06/29.1204/2019,146.6691,120.8044,268.3727,1.000862,5.760359,2000,8.0,4.0
# From MPEC 2022-P91
P/2020 A4 (PANSTARRS-Lemmon),e,24.9908,312.3763,144.7716,8.194138,0.0420193,0.65399416,53.7023,05/24.0/2023,2000,g 15.0,4.0
# From MPEC 2020-N08
A/2020 B1,e,18.5197,309.9496,154.7279,51.41839,0.0026732,0.96614219,3.3272,05/24.0/2023,2000,g 21.0,2.0
# From MPEC 2022-N37
C/2020 B3 (Rankin),e,20.7096,185.8462,324.9125,947.8537,0.0000338,0.99647996,0.0000,10/19.4514/2019,2000,g 13.0,4.0
# From MPEC 2023-K53
P/2020 B4 (Sheppard),e,11.6091,185.9789,342.0770,7.966710,0.0438314,0.19181761,24.1348,05/24.0/2023,2000,g 10.5,4.0
